1 08820U 76039A   03157.93428617  .00000020  00000-0  10000-3 0  9276
2 08820 109.8047 178.0922 0044592 303.5947  56.0503  6.38664396376403
